start=new Date('2022-06-16T00:00:00.000Z').valueOf();
sats=[{"REF_FRAME":"TEME","ARG_OF_PERICENTER":"17.2807","OBJECT_NAME":"STARLINK-4005","CENTER_NAME":"EARTH","RA_OF_ASC_NODE":"156.8560","CLASSIFICATION_TYPE":"U","INCLINATION":"53.2141","MEAN_ELEMENT_THEORY":"SGP4","DECAY_DATE":null,"BSTAR":"-0.00007296800000","LAUNCH_DATE":"2022-05-18","PERIOD":"91.531","REV_AT_EPOCH":"480","EPOCH":"2022-06-15T22:00:00.999936","FILE":"3496871","OBJECT_ID":"2022-053AG","ECCENTRICITY":"0.00024430","OBJECT_TYPE":"PAYLOAD","PERIAPSIS":"347.987","RCS_SIZE":"LARGE","TLE_LINE1":"1 52686U 22053AG  22166.91667824 -.00010871  00000-0 -72968-4 0  9994","MEAN_MOTION":"15.73245504","MEAN_MOTION_DOT":"-0.00010871","APOAPSIS":"351.274","MEAN_MOTION_DDOT":"0.0000000000000","COUNTRY_CODE":"US","MEAN_ANOMALY":"307.6806","SITE":"AFETR","NORAD_CAT_ID":"52686","ELEMENT_SET_NO":"999","GP_ID":"206212913","SEMIMAJOR_AXIS":"6727.765","EPHEMERIS_TYPE":"0","TIME_SYSTEM":"UTC","TLE_LINE2":"2 52686  53.2141 156.8560 0002443  17.2807 307.6806 15.73245504  4802"},{"ELEMENT_SET_NO":"999","GP_ID":"206240678","NORAD_CAT_ID":"52687","SITE":"AFETR","TLE_LINE2":"2 52687  53.2141 156.8488 0002511  20.3196 307.6466 15.73223454  1308","TIME_SYSTEM":"UTC","SEMIMAJOR_AXIS":"6727.828","EPHEMERIS_TYPE":"0","MEAN_MOTION":"15.73223454","MEAN_MOTION_DOT":"0.00002068","APOAPSIS":"351.383","MEAN_MOTION_DDOT":"0.0000000000000","COUNTRY_CODE":"US","MEAN_ANOMALY":"307.6466","RCS_SIZE":"LARGE","TLE_LINE1":"1 52687U 22053AH  22166.91667824  .00002068  00000-0  19145-4 0  9990","REV_AT_EPOCH":"130","EPOCH":"2022-06-15T22:00:00.999936","FILE":"3496999","OBJECT_ID":"2022-053AH","ECCENTRICITY":"0.00025110","OBJECT_TYPE":"PAYLOAD","PERIOD":"91.532","PERIAPSIS":"348.004","RA_OF_ASC_NODE":"156.8488","CLASSIFICATION_TYPE":"U","REF_FRAME":"TEME","ARG_OF_PERICENTER":"20.3196","OBJECT_NAME":"STARLINK-3981","CENTER_NAME":"EARTH","DECAY_DATE":null,"LAUNCH_DATE":"2022-05-18","BSTAR":"0.00001914500000","INCLINATION":"53.2141","MEAN_ELEMENT_THEORY":"SGP4"},{"REF_FRAME":"TEME","ARG_OF_PERICENTER":"19.7953","OBJECT_NAME":"STARLINK-4032","CENTER_NAME":"EARTH","RA_OF_ASC_NODE":"156.8532","CLASSIFICATION_TYPE":"U","INCLINATION":"53.2139","MEAN_ELEMENT_THEORY":"SGP4","DECAY_DATE":null,"LAUNCH_DATE":"2022-05-18","BSTAR":"0.00002384500000","PERIOD":"91.532","REV_AT_EPOCH":"480","EPOCH":"2022-06-15T22:00:00.999936","OBJECT_ID":"2022-053AJ","FILE":"3496872","ECCENTRICITY":"0.00022920","OBJECT_TYPE":"PAYLOAD","PERIAPSIS":"348.153","RCS_SIZE":"LARGE","TLE_LINE1":"1 52688U 22053AJ  22166.91667824  .00002729  00000-0  23845-4 0  9997","MEAN_MOTION":"15.73222777","MEAN_MOTION_DOT":"0.00002729","APOAPSIS":"351.237","MEAN_MOTION_DDOT":"0.0000000000000","COUNTRY_CODE":"US","MEAN_ANOMALY":"306.3948","NORAD_CAT_ID":"52688","SITE":"AFETR","ELEMENT_SET_NO":"999","GP_ID":"206212924","SEMIMAJOR_AXIS":"6727.830","EPHEMERIS_TYPE":"0","TLE_LINE2":"2 52688  53.2139 156.8532 0002292  19.7953 306.3948 15.73222777  4801","TIME_SYSTEM":"UTC"},{"OBJECT_TYPE":"PAYLOAD","ECCENTRICITY":"0.00024220","OBJECT_ID":"2022-053AK","FILE":"3496999","REV_AT_EPOCH":"130","EPOCH":"2022-06-15T22:00:00.999936","PERIOD":"91.534","PERIAPSIS":"348.160","CLASSIFICATION_TYPE":"U","RA_OF_ASC_NODE":"156.8472","CENTER_NAME":"EARTH","OBJECT_NAME":"STARLINK-4078","ARG_OF_PERICENTER":"24.4245","REF_FRAME":"TEME","LAUNCH_DATE":"2022-05-18","BSTAR":"0.00067956000000","DECAY_DATE":null,"MEAN_ELEMENT_THEORY":"SGP4","INCLINATION":"53.2156","GP_ID":"206240783","ELEMENT_SET_NO":"999","SITE":"AFETR","NORAD_CAT_ID":"52689","TIME_SYSTEM":"UTC","TLE_LINE2":"2 52689  53.2156 156.8472 0002422  24.4245 305.2962 15.73189643  1306","EPHEMERIS_TYPE":"0","SEMIMAJOR_AXIS":"6727.925","COUNTRY_CODE":"US","MEAN_ANOMALY":"305.2962","MEAN_MOTION_DDOT":"0.0000000000000","MEAN_MOTION_DOT":"0.00095810","APOAPSIS":"351.419","MEAN_MOTION":"15.73189643","TLE_LINE1":"1 52689U 22053AK  22166.91667824  .00095810  00000-0  67956-3 0  9991","RCS_SIZE":"LARGE"},{"TLE_LINE1":"1 52690U 22053AL  22166.91667824 -.00011111  00000-0 -74715-4 0  9999","RCS_SIZE":"LARGE","MEAN_MOTION_DDOT":"0.0000000000000","MEAN_ANOMALY":"307.3450","COUNTRY_CODE":"US","MEAN_MOTION":"15.73234170","MEAN_MOTION_DOT":"-0.00011111","APOAPSIS":"351.261","EPHEMERIS_TYPE":"0","SEMIMAJOR_AXIS":"6727.798","TIME_SYSTEM":"UTC","TLE_LINE2":"2 52690  53.2154 156.8539 0002376  19.4339 307.3450 15.73234170  4805","SITE":"AFETR","NORAD_CAT_ID":"52690","GP_ID":"206212421","ELEMENT_SET_NO":"999","MEAN_ELEMENT_THEORY":"SGP4","INCLINATION":"53.2154","BSTAR":"-0.00007471500000","LAUNCH_DATE":"2022-05-18","DECAY_DATE":null,"OBJECT_NAME":"STARLINK-4035","CENTER_NAME":"EARTH","REF_FRAME":"TEME","ARG_OF_PERICENTER":"19.4339","CLASSIFICATION_TYPE":"U","RA_OF_ASC_NODE":"156.8539","PERIAPSIS":"348.064","PERIOD":"91.531","OBJECT_TYPE":"PAYLOAD","ECCENTRICITY":"0.00023760","REV_AT_EPOCH":"480","EPOCH":"2022-06-15T22:00:00.999936","FILE":"3496872","OBJECT_ID":"2022-053AL"},{"PERIOD":"91.531","ECCENTRICITY":"0.00025240","OBJECT_TYPE":"PAYLOAD","FILE":"3496872","OBJECT_ID":"2022-053AM","REV_AT_EPOCH":"480","EPOCH":"2022-06-15T22:00:00.999936","PERIAPSIS":"347.967","CENTER_NAME":"EARTH","OBJECT_NAME":"STARLINK-3945","ARG_OF_PERICENTER":"24.1175","REF_FRAME":"TEME","CLASSIFICATION_TYPE":"U","RA_OF_ASC_NODE":"156.8462","MEAN_ELEMENT_THEORY":"SGP4","INCLINATION":"53.2158","BSTAR":"0.00005796500000","LAUNCH_DATE":"2022-05-18","DECAY_DATE":null,"NORAD_CAT_ID":"52691","SITE":"AFETR","GP_ID":"206212928","ELEMENT_SET_NO":"999","EPHEMERIS_TYPE":"0","SEMIMAJOR_AXIS":"6727.800","TIME_SYSTEM":"UTC","TLE_LINE2":"2 52691  53.2158 156.8462 0002524  24.1175 306.2132 15.73233253  4807","TLE_LINE1":"1 52691U 22053AM  22166.91667824  .00007533  00000-0  57965-4 0  9999","RCS_SIZE":"LARGE","COUNTRY_CODE":"US","MEAN_ANOMALY":"306.2132","MEAN_MOTION_DDOT":"0.0000000000000","APOAPSIS":"351.363","MEAN_MOTION_DOT":"0.00007533","MEAN_MOTION":"15.73233253"},{"TLE_LINE1":"1 52692U 22053AN  22166.91667824  .00099035  00000-0  70217-3 0  9992","RCS_SIZE":"LARGE","COUNTRY_CODE":"US","MEAN_ANOMALY":"316.3764","MEAN_MOTION_DDOT":"0.0000000000000","MEAN_MOTION_DOT":"0.00099035","APOAPSIS":"351.400","MEAN_MOTION":"15.73184735","NORAD_CAT_ID":"52692","SITE":"AFETR","GP_ID":"206240127","ELEMENT_SET_NO":"999","EPHEMERIS_TYPE":"0","SEMIMAJOR_AXIS":"6727.939","TIME_SYSTEM":"UTC","TLE_LINE2":"2 52692  53.2160 156.8507 0002373  12.1470 316.3764 15.73184735  1303","CENTER_NAME":"EARTH","OBJECT_NAME":"STARLINK-3993","ARG_OF_PERICENTER":"12.1470","REF_FRAME":"TEME","CLASSIFICATION_TYPE":"U","RA_OF_ASC_NODE":"156.8507","MEAN_ELEMENT_THEORY":"SGP4","INCLINATION":"53.2160","BSTAR":"0.00070217000000","LAUNCH_DATE":"2022-05-18","DECAY_DATE":null,"PERIOD":"91.534","ECCENTRICITY":"0.00023730","OBJECT_TYPE":"PAYLOAD","OBJECT_ID":"2022-053AN","FILE":"3496999","REV_AT_EPOCH":"130","EPOCH":"2022-06-15T22:00:00.999936","PERIAPSIS":"348.207"},{"INCLINATION":"53.2160","MEAN_ELEMENT_THEORY":"SGP4","DECAY_DATE":null,"LAUNCH_DATE":"2022-05-18","BSTAR":"0.00002020800000","REF_FRAME":"TEME","ARG_OF_PERICENTER":"26.8441","OBJECT_NAME":"STARLINK-3946","CENTER_NAME":"EARTH","RA_OF_ASC_NODE":"156.8439","CLASSIFICATION_TYPE":"U","PERIAPSIS":"347.936","PERIOD":"91.531","EPOCH":"2022-06-15T22:00:00.999936","REV_AT_EPOCH":"480","FILE":"3496872","OBJECT_ID":"2022-053AP","ECCENTRICITY":"0.00025750","OBJECT_TYPE":"PAYLOAD","RCS_SIZE":"LARGE","TLE_LINE1":"1 52693U 22053AP  22166.91667824  .00002219  00000-0  20208-4 0  9997","MEAN_MOTION":"15.73232165","MEAN_MOTION_DOT":"0.00002219","APOAPSIS":"351.401","MEAN_MOTION_DDOT":"0.0000000000000","MEAN_ANOMALY":"304.7080","COUNTRY_CODE":"US","SEMIMAJOR_AXIS":"6727.803","EPHEMERIS_TYPE":"0","TLE_LINE2":"2 52693  53.2160 156.8439 0002575  26.8441 304.7080 15.73232165  4803","TIME_SYSTEM":"UTC","SITE":"AFETR","NORAD_CAT_ID":"52693","ELEMENT_SET_NO":"999","GP_ID":"206212930"},{"PERIAPSIS":"348.086","OBJECT_TYPE":"PAYLOAD","ECCENTRICITY":"0.00024620","EPOCH":"2022-06-15T22:00:00.999936","REV_AT_EPOCH":"480","OBJECT_ID":"2022-053AQ","FILE":"3496872","PERIOD":"91.533","BSTAR":"0.00026547000000","LAUNCH_DATE":"2022-05-18","DECAY_DATE":null,"MEAN_ELEMENT_THEORY":"SGP4","INCLINATION":"53.2158","CLASSIFICATION_TYPE":"U","RA_OF_ASC_NODE":"156.8491","OBJECT_NAME":"STARLINK-4072","CENTER_NAME":"EARTH","REF_FRAME":"TEME","ARG_OF_PERICENTER":"14.8191","TIME_SYSTEM":"UTC","TLE_LINE2":"2 52694  53.2158 156.8491 0002462  14.8191 314.3680 15.73206118  4805","EPHEMERIS_TYPE":"0","SEMIMAJOR_AXIS":"6727.878","GP_ID":"206212920","ELEMENT_SET_NO":"999","SITE":"AFETR","NORAD_CAT_ID":"52694","MEAN_MOTION_DDOT":"0.0000000000000","MEAN_ANOMALY":"314.3680","COUNTRY_CODE":"US","MEAN_MOTION":"15.73206118","APOAPSIS":"351.399","MEAN_MOTION_DOT":"0.00036812","TLE_LINE1":"1 52694U 22053AQ  22166.91667824  .00036812  00000-0  26547-3 0  9995","RCS_SIZE":"LARGE"},{"TIME_SYSTEM":"UTC","TLE_LINE2":"2 52695  53.2158 156.8406 0002478  19.7195 313.0497 15.73192716  4807","SEMIMAJOR_AXIS":"6727.916","EPHEMERIS_TYPE":"0","ELEMENT_SET_NO":"999","GP_ID":"206212916","NORAD_CAT_ID":"52695","SITE":"AFETR","APOAPSIS":"351.448","MEAN_MOTION_DOT":"0.00061794","MEAN_MOTION":"15.73192716","MEAN_ANOMALY":"313.0497","COUNTRY_CODE":"US","MEAN_MOTION_DDOT":"0.0000000000000","RCS_SIZE":"LARGE","TLE_LINE1":"1 52695U 22053AR  22166.91667824  .00061794  00000-0  44157-3 0  9990","PERIAPSIS":"348.114","FILE":"3496872","OBJECT_ID":"2022-053AR","REV_AT_EPOCH":"480","EPOCH":"2022-06-15T22:00:00.999936","ECCENTRICITY":"0.00024780","OBJECT_TYPE":"PAYLOAD","PERIOD":"91.534","DECAY_DATE":null,"LAUNCH_DATE":"2022-05-18","BSTAR":"0.00044157000000","INCLINATION":"53.2158","MEAN_ELEMENT_THEORY":"SGP4","RA_OF_ASC_NODE":"156.8406","CLASSIFICATION_TYPE":"U","ARG_OF_PERICENTER":"19.7195","REF_FRAME":"TEME","CENTER_NAME":"EARTH","OBJECT_NAME":"STARLINK-4041"}];
